{
    "links": {
        "self": "http://www.neowsapp.com/rest/v1/neo/3695933?api_key=iIulBulltgU6a56xZRHN4H3l9WmuAYTsLGpBGhQ2"
    },
    "id": "3695933",
    "neo_reference_id": "3695933",
    "name": "(2014 UH210)",
    "designation": "2014 UH210",
    "nasa_jpl_url": "http://ssd.jpl.nasa.gov/sbdb.cgi?sstr=3695933",
    "absolute_magnitude_h": 21.1,
    "estimated_diameter": {
        "kilometers": {
            "estimated_diameter_min": 0.160160338,
            "estimated_diameter_max": 0.358129403
        },
        "meters": {
            "estimated_diameter_min": 160.1603379786,
            "estimated_diameter_max": 358.1294030194
        },
        "miles": {
            "estimated_diameter_min": 0.0995189894,
            "estimated_diameter_max": 0.2225312253
        },
        "feet": {
            "estimated_diameter_min": 525.4604432536,
            "estimated_diameter_max": 1174.9652706022
        }
    },
    "is_potentially_hazardous_asteroid": false,
    "close_approach_data": [
        {
            "close_approach_date": "2014-10-03",
            "close_approach_date_full": "2014-Oct-03 12:24",
            "epoch_date_close_approach": 1412339040000,
            "relative_velocity": {
                "kilometers_per_second": "24.1998310686",
                "kilometers_per_hour": "87119.3918471306",
                "miles_per_hour": "54132.6021174574"
            },
            "miss_distance": {
                "astronomical": "0.3463566096",
                "lunar": "134.7327211344",
                "kilometers": "51814211.056581552",
                "miles": "32195857.8087953376"
            },
            "orbiting_body": "Earth"
        }
    ],
    "orbital_data": {
        "orbit_id": "5",
        "orbit_determination_date": "2017-04-06 08:37:36",
        "first_observation_date": "2014-10-20",
        "last_observation_date": "2014-11-13",
        "data_arc_in_days": 24,
        "observations_used": 15,
        "orbit_uncertainty": "9",
        "minimum_orbit_intersection": ".100118",
        "jupiter_tisserand_invariant": "3.014",
        "epoch_osculation": "2456959.5",
        "eccentricity": ".6544039152143114",
        "semi_major_axis": "2.563217636682024",
        "inclination": "22.0566922152892",
        "ascending_node_longitude": "151.7794830887999",
        "orbital_period": "1498.913775251728",
        "perihelion_distance": ".8858379796909331",
        "perihelion_argument": "162.0019608372468",
        "aphelion_distance": "4.240597293673115",
        "perihelion_time": "2456906.725719536610",
        "mean_anomaly": "12.67500591461957",
        "mean_motion": ".240173921905242",
        "equinox": "J2000",
        "orbit_class": {
            "orbit_class_type": "APO",
            "orbit_class_description": "Near-Earth asteroid orbits which cross the Earth’s orbit similar to that of 1862 Apollo",
            "orbit_class_range": "a (semi-major axis) > 1.0 AU; q (perihelion) < 1.017 AU"
        }
    },
    "is_sentry_object": false
}